NORAD_CAT_ID,OBJECT_NAME,OBJECT_TYPE,EPOCH,MEAN_MOTION,ECCENTRICITY,INCLINATION,RA_OF_ASC_NODE,ARG_OF_PERICENTER,MEAN_ANOMALY,BSTAR,MEAN_MOTION_DOT,MEAN_MOTION_DDOT,TLE_LINE0,TLE_LINE1,TLE_LINE2,SEMIMAJOR_AXIS,PERIOD,APOGEE,PERIGEE,DECAYED
50191.0,STARLINK-3273,PAYLOAD,2022-04-11 22:00:00,15.08830692,0.0002083,53.2173,188.6546,31.725,15.0675,-0.0045153,-0.00071421,0.0,0 STARLINK-3273,1 50191U 21125AM  22101.91667824 -.00071421  00000-0 -45153-2 0  9993,2 50191  53.2173 188.6546 0002083  31.7250  15.0675 15.08830692  3591,6917.909000000002,95.438,541.215,538.3330000000002,0.0
50191.0,STARLINK-3273,PAYLOAD,2022-04-12 14:00:01,15.08812776,0.0002162,53.2179,185.6633,28.7169,41.1708,0.0020135,0.00031879,0.0,0 STARLINK-3273,1 50191U 21125AM  22102.58334491  .00031879  00000-0  20135-2 0  9992,2 50191  53.2179 185.6633 0002162  28.7169  41.1708 15.08812776 17926,6917.964,95.439,541.3240000000002,538.3330000000002,0.0
50191.0,STARLINK-3273,PAYLOAD,2022-04-12 22:00:00,15.08827679,0.0002155,53.2174,184.1559,26.8358,54.6293,0.006338,0.00102011,0.0,0 STARLINK-3273,1 50191U 21125AM  22102.91667824  .00102011  00000-0  63380-2 0  9994,2 50191  53.2174 184.1559 0002155  26.8358  54.6293 15.08827679  3575,6917.918000000002,95.438,541.274,538.2919999999998,0.0
50191.0,STARLINK-3273,PAYLOAD,2022-04-13 14:00:03,15.08843484,0.0002233,53.2185,181.1743,29.4746,75.3169,0.0018442,0.00029188,0.0,0 STARLINK-3273,1 50191U 21125AM  22103.58336806  .00029188  00000-0  18442-2 0  9993,2 50191  53.2185 181.1743 0002233  29.4746  75.3169 15.08843484 18071,6917.87,95.437,541.28,538.19,0.0
50191.0,STARLINK-3273,PAYLOAD,2022-04-13 22:00:00,15.08883405,0.000213,53.2184,179.6769,31.4693,84.8129,-0.0035165,-0.00055887,0.0,0 STARLINK-3273,1 50191U 21125AM  22103.91667824 -.00055887  00000-0 -35165-2 0  9995,2 50191  53.2184 179.6769 0002130  31.4693  84.8129 15.08883405  3601,6917.748000000001,95.435,541.086,538.139,0.0
50191.0,STARLINK-3273,PAYLOAD,2022-04-14 08:00:01,15.08879947,0.0002101,53.2186,177.8067,33.7828,187.0131,-0.0032839,-0.00052231,0.0,0 STARLINK-3273,1 50191U 21125AM  22104.33334491 -.00052231  00000-0 -32839-2 0  9998,2 50191  53.2186 177.8067 0002101  33.7828 187.0131 15.08879947 18181,6917.7580000000025,95.435,541.077,538.17,0.0
50191.0,STARLINK-3273,PAYLOAD,2022-04-14 14:00:01,15.08827529,0.0002236,53.2185,176.6856,29.4418,110.0711,-1.7233e-05,-5.62e-06,0.0,0 STARLINK-3273,1 50191U 21125AM  22104.58334491 -.00000562  00000-0 -17233-4 0  9998,2 50191  53.2185 176.6856 0002236  29.4418 110.0711 15.08827529  3609,6917.919,95.438,541.33,538.237,0.0
50191.0,STARLINK-3273,PAYLOAD,2022-04-14 21:20:00,15.08854121,0.0002183,53.2184,175.3128,36.0909,324.0231,0.00019187,2.768e-05,0.0,0 STARLINK-3273,1 50191U 21125AM  22104.88889564  .00002768  00000-0  19187-3 0  9994,2 50191  53.2184 175.3128 0002183  36.0909 324.0231 15.08854121 18277,6917.837,95.437,541.212,538.192,0.0
50191.0,STARLINK-3273,PAYLOAD,2022-04-15 06:00:00,15.08834975,0.0001972,53.2184,173.6916,30.8232,131.8522,0.00037993,5.763e-05,0.0,0 STARLINK-3273,1 50191U 21125AM  22105.25001157  .00005763  00000-0  37993-3 0  9993,2 50191  53.2184 173.6916 0001972  30.8232 131.8522 15.08834975 18327,6917.896,95.438,541.125,538.3969999999998,0.0
50191.0,STARLINK-3273,PAYLOAD,2022-04-15 13:13:52,15.08841428,0.0002082,53.2192,172.3395,35.6326,324.4805,-3.2251e-05,-8.02e-06,0.0,0 STARLINK-3273,1 50191U 21125AM  22105.55130466 -.00000802  00000-0 -32251-4 0  9996,2 50191  53.2192 172.3395 0002082  35.6326 324.4805 15.08841428 21456,6917.876,95.437,541.181,538.3009999999998,0.0
50191.0,STARLINK-3273,PAYLOAD,2022-04-15 22:00:00,15.08859574,0.0002046,53.2176,170.6991,29.5733,156.3047,-0.00032337,-5.434e-05,0.0,0 STARLINK-3273,1 50191U 21125AM  22105.91667824 -.00005434  00000-0 -32337-3 0  9999,2 50191  53.2176 170.6991 0002046  29.5733 156.3047 15.08859574  3580,6917.821,95.436,541.101,538.27,0.0
50191.0,STARLINK-3273,PAYLOAD,2022-04-16 14:00:01,15.08811404,0.0002304,53.2172,167.7081,31.5744,177.4756,0.0029788,0.00047402,0.0,0 STARLINK-3273,1 50191U 21125AM  22106.58334491  .00047402  00000-0  29788-2 0  9998,2 50191  53.2172 167.7081 0002304  31.5744 177.4756 15.08811404 18526,6917.968000000003,95.439,541.427,538.239,0.0
50191.0,STARLINK-3273,PAYLOAD,2022-04-16 22:00:01,15.08837864,0.0002143,53.2168,166.2101,34.0382,186.6572,0.00010194,1.334e-05,0.0,0 STARLINK-3273,1 50191U 21125AM  22106.91668981  .00001334  00000-0  10194-3 0  9995,2 50191  53.2168 166.2101 0002143  34.0382 186.6572 15.08837864  3592,6917.887,95.438,541.234,538.269,0.0
50191.0,STARLINK-3273,PAYLOAD,2022-04-17 06:00:00,15.08858852,0.0002181,53.2167,164.71400000000003,37.7079,194.5141,-0.0023538,-0.00037575,0.0,0 STARLINK-3273,1 50191U 21125AM  22107.25001157 -.00037575  00000-0 -23538-2 0  9992,2 50191  53.2167 164.7140 0002181  37.7079 194.5141 15.08858852 18622,6917.823,95.436,541.197,538.179,0.0
50191.0,STARLINK-3273,PAYLOAD,2022-04-17 14:00:01,15.08808869,0.000242,53.2164,163.2191,34.2937,209.5319,0.0031411,0.00050016,0.0,0 STARLINK-3273,1 50191U 21125AM  22107.58334491  .00050016  00000-0  31411-2 0  9990,2 50191  53.2164 163.2191 0002420  34.2937 209.5319 15.08808869  3609,6917.976,95.44,541.515,538.1659999999998,0.0
50191.0,STARLINK-3273,PAYLOAD,2022-04-17 22:00:00,15.08833707,0.0002261,53.2162,161.7209,36.5975,218.8145,0.00080645,0.00012568,0.0,0 STARLINK-3273,1 50191U 21125AM  22107.91667824  .00012568  00000-0  80645-3 0  9990,2 50191  53.2162 161.7209 0002261  36.5975 218.8145 15.08833707  3597,6917.9,95.438,541.3290000000002,538.2,0.0
50191.0,STARLINK-3273,PAYLOAD,2022-04-18 08:00:01,15.08864571,0.000237,53.2161,159.8512,37.2633,322.6408,-0.0015222,-0.0002445,0.0,0 STARLINK-3273,1 50191U 21125AM  22108.33334491 -.00024450  00000-0 -15222-2 0  9991,2 50191  53.2161 159.8512 0002370  37.2633 322.6408 15.08864571 18798,6917.805,95.436,541.31,538.031,0.0
50191.0,STARLINK-3273,PAYLOAD,2022-04-18 14:00:01,15.08839825,0.000247,53.216,158.7298,34.1124,244.5026,0.0002569,3.803e-05,0.0,0 STARLINK-3273,1 50191U 21125AM  22108.58334491  .00003803  00000-0  25690-3 0  9996,2 50191  53.2160 158.7298 0002470  34.1124 244.5026 15.08839825  3604,6917.880999999999,95.438,541.455,538.0369999999998,0.0
50191.0,STARLINK-3273,PAYLOAD,2022-04-18 22:00:00,15.08822581,0.0002284,53.2161,157.2314,35.3155,254.9074,0.0014567,0.00022961,0.0,0 STARLINK-3273,1 50191U 21125AM  22108.91667824  .00022961  00000-0  14567-2 0  9998,2 50191  53.2161 157.2314 0002284  35.3155 254.9074 15.08822581  3562,6917.934,95.439,541.379,538.219,0.0
50191.0,STARLINK-3273,PAYLOAD,2022-04-19 06:00:00,15.08856899,0.0002352,53.2162,155.7354,37.2402,264.5622,-0.00099835,-0.0001615,0.0,0 STARLINK-3273,1 50191U 21125AM  22109.25001157 -.00016150  00000-0 -99835-3 0  9994,2 50191  53.2162 155.7354 0002352  37.2402 264.5622 15.08856899 18923,6917.829000000002,95.436,541.321,538.067,0.0
50191.0,STARLINK-3273,PAYLOAD,2022-04-19 14:00:01,15.08834459,0.0002515,53.2161,154.2402,33.3269,280.081,0.0015262,0.00024082,0.0,0 STARLINK-3273,1 50191U 21125AM  22109.58334491  .00024082  00000-0  15262-2 0  9992,2 50191  53.2161 154.2402 0002515  33.3269 280.0810 15.08834459  3563,6917.897,95.438,541.502,538.0219999999998,0.0
50191.0,STARLINK-3273,PAYLOAD,2022-04-20 14:00:01,15.08820426,0.0002547,53.2166,149.7509,32.4024,315.7833,0.0025382,0.00040318,0.0,0 STARLINK-3273,1 50191U 21125AM  22110.58334491  .00040318  00000-0  25382-2 0  9998,2 50191  53.2166 149.7509 0002547  32.4024 315.7833 15.08820426 19128,6917.94,95.439,541.567,538.043,0.0
50191.0,STARLINK-3273,PAYLOAD,2022-04-20 22:00:00,15.08827849,0.0002319,53.2169,148.2528,34.7816,325.0054,-0.00020516,-3.551e-05,0.0,0 STARLINK-3273,1 50191U 21125AM  22110.91667824 -.00003551  00000-0 -20516-3 0  9999,2 50191  53.2169 148.2528 0002319  34.7816 325.0054 15.08827849  3596,6917.918000000002,95.438,541.387,538.178,0.0
50191.0,STARLINK-3273,PAYLOAD,2022-04-21 06:00:00,15.0875026,0.0002458,53.2174,146.7416,35.2044,336.1833,0.0074261,0.00119619,0.0,0 STARLINK-3273,1 50191U 21125AM  22111.25001157  .00119619  00000-0  74261-2 0  9994,2 50191  53.2174 146.7416 0002458  35.2044 336.1833 15.08750260 19232,6918.155,95.443,541.72,538.319,0.0
50191.0,STARLINK-3273,PAYLOAD,2022-04-21 14:00:01,15.08816007,0.0002539,53.2169,145.2618,31.7265,351.2191,0.0024748,0.00039294,0.0,0 STARLINK-3273,1 50191U 21125AM  22111.58334491  .00039294  00000-0  24748-2 0  9995,2 50191  53.2169 145.2618 0002539  31.7265 351.2191 15.08816007  3577,6917.954000000002,95.439,541.575,538.062,0.0
50191.0,STARLINK-3273,PAYLOAD,2022-04-21 22:00:00,15.08815968,0.0002314,53.2172,143.7638,35.4814,359.0559,0.0028795,0.00045808,0.0,0 STARLINK-3273,1 50191U 21125AM  22111.91667824  .00045808  00000-0  28795-2 0  9995,2 50191  53.2172 143.7638 0002314  35.4814 359.0559 15.08815968  3599,6917.954000000002,95.439,541.42,538.2180000000002,0.0
50191.0,STARLINK-3273,PAYLOAD,2022-04-22 14:00:01,15.08846881,0.0002538,53.2172,140.7729,32.0934,25.6278,-9.5617e-05,-1.810000000000001e-05,0.0,0 STARLINK-3273,1 50191U 21125AM  22112.58334491 -.00001810  00000-0 -95617-4 0  9996,2 50191  53.2172 140.7729 0002538  32.0934  25.6278 15.08846881  3605,6917.859,95.437,541.48,537.969,0.0
50191.0,STARLINK-3273,PAYLOAD,2022-04-22 22:00:00,15.08808177,0.0002257,53.2173,139.2748,34.9327,34.4048,0.0022785,0.0003613,0.0,0 STARLINK-3273,1 50191U 21125AM  22112.91667824  .00036130  00000-0  22785-2 0  9997,2 50191  53.2173 139.2748 0002257  34.9327  34.4048 15.08808177 19487,6917.978,95.44,541.404,538.281,0.0
50191.0,STARLINK-3273,PAYLOAD,2022-04-23 14:00:01,15.08828121,0.0002512,53.217,136.284,32.7215,59.7743,0.0013658,0.00021509,0.0,0 STARLINK-3273,1 50191U 21125AM  22113.58334491  .00021509  00000-0  13658-2 0  9995,2 50191  53.2170 136.2840 0002512  32.7215  59.7743 15.08828121 19584,6917.917,95.438,541.519,538.044,0.0
